#dP2020  7  9  0  0  0.00000000      96 __u+U ITR00 FIT  IAC
## 2113 345600.00000000   900.00000000 59039 0.0000000000000
+  115   C06C07C08C09C10C11C12C13C14C16C19C20C21C22C23C24C25
+        C26C27C28C29C30C32C33C34C35C36C37C38C39C40C43C44C45
+        C46E01E02E03E04E05E07E08E09E11E12E13E14E15E18E19E21
+        E24E25E26E27E30E31E33E36G01G02G03G04G05G06G07G08G09
+        G10G11G12G13G14G15G16G17G18G19G20G21G22G24G25G26G27
+        G28G29G30G31G32J01J02J03R01R02R03R04R05R07R08R09R11
+        R12R13R14R15R16R17R18R19R20R21R23R24R26  0  0  0  0
++         9  7  9  9  8  7  7  7  7  9  8  6  6  5  9  7  6
++         5  7  8  7  8  8  8  7  6  7  8  5 11  5  8  8 12
++        11  7  5  5  5  6  6  6  5  6  5  6  5  5  5  7  6
++         6  6  6  7  6  6  6  5  5  6 11  5  5  5  6  5  4
++         6  6  6  6  6  5  5  6  5  5  6  6  6  5  5  5  5
++         6  4  6  6  6  8  6  8  6  5  7  7  6  7  6  6  8
++         6  7  6  6  6  6  6  6  6  5  6  7  7  0  0  0  0
%c M  cc GPS ccc cccc cccc cccc cccc ccccc ccccc ccccc ccccc
%c cc cc ccc ccc cccc cccc cccc cccc ccccc ccccc ccccc ccccc
%f  0.0000000  0.000000000  0.00000000000  0.000000000000000
%f  0.0000000  0.000000000  0.00000000000  0.000000000000000
%i    0    0    0    0      0      0      0      0         0
%i    0    0    0    0      0      0      0      0         0
/* INFORMATION & ANALYSIS CENTER (IAC)      ULTRA-RAPID DATA
/* S/V CLOCKS ARE ALIGNED TO GNSS TIME                      
/* G:C1WC2W R:C1PC2P E:C1XC5X C:C2IC6I J:C1CC2S             
/* PCV:IGS14_2108 OL/AL:FES2004  NONE     YN ORB:CoN CLK:CoN
*  2020 07 09  7  0  0.00000000
PC06 -24459.149389  29184.546018 -18170.429232    775.719764
PC07 -10541.374305  36819.557066 -16860.243326    -19.605061
PC08  -8642.923839  19835.527679  36287.520438   -362.937280
PC09 -10339.740508  28731.646853 -28968.339669    664.124852
PC10   -395.683132  41588.973641  -5015.576001   -241.454896
PC11  -9130.805501 -13029.895915 -22867.702978   -479.341447
PC12  11657.803879 -16562.973297 -19184.144164    425.926796
PC13   6434.248706  26828.064050  32051.468010    533.301463
PC14  -4998.779750 -23374.575481  14481.520606    642.582876
PC16 -21785.590713  29666.972026 -20662.709872   -602.759840
PC19  10850.972697  15745.841423 -20288.781182    469.326812
PC20  -1000.077393  26907.597296  -7243.267027   -841.370721
PC21  12743.813485 -22457.157773 -10597.451235   -633.381119
PC22  16692.404929  -4839.980775 -21833.356348   -774.379030
PC23 -21886.464368  -4506.719051 -16710.275589   -845.409672
PC24  -6863.500913 -22034.542774  15678.007648   -770.068837
PC25 -21163.163217 -18140.168110  -1167.684034   -679.734117
PC26   9633.736684 -13036.135071  22712.454142    747.937349
PC27 -20308.224390  14609.750280  12361.384210    361.226494
PC28 -27149.092547   4101.208027  -4962.874705   -200.271188
PC29  18445.189657   8080.420292  19308.560973    253.459228
PC30  -1340.173718  16685.231883  22324.408721    343.777065
PC32 -12604.884673  22511.659524  10634.099862   -875.993047
PC33 -10928.714796 -15794.509204  20261.731861   -801.369541
PC34    759.386458 -16610.938061 -22418.282464   -886.562655
PC35  26974.686312  -4880.505714   5130.729637   -758.795171
PC36  20656.640221  18730.909300    978.100494   -864.356928
PC37 -10479.090772  12295.474331 -22729.941280 999999.999999
PC38  -7665.291649  22836.268492  34600.168063     87.896098
PC39 -19054.799788  31111.981741 -21218.863014 999999.999999
PC40  -6993.895598  40212.103125 -10164.840423 999999.999999
PC43 -18175.969546  -8487.334699 -19416.527856 999999.999999
PC44  19894.386933 -15277.135339 -12206.191338   -314.227207
PC45  21845.831325   4481.299426  16793.546854    175.277523
PC46   7533.661407  22077.849009 -15319.273552 999999.999999
PE01  -7815.292793  19043.217056 -21265.465396   -894.496721
PE02   7752.592855 -19122.547692  21222.024974    146.040666
PE03  18365.788410 -23225.036533    205.362498   -318.612050
PE04  -3603.011992  23906.497841 -17065.171740   -562.138190
PE05  22539.618515  -8895.378483 -16996.665445   -364.795848
PE07 -13517.932592 -10528.075174  24149.108564   -406.478593
PE08   3327.157506 -23796.436354  17305.509456   6152.273398
PE09  13560.063842  10221.695182 -24235.099633   6002.550200
PE11  24197.034373  11681.535964  12389.345961   3983.359397
PE12   4749.468904  16643.893093  24004.535298   5715.404199
PE13 -24094.803019 -11667.046109 -12635.611001    402.187714
PE14  19788.374590   1395.160586  14568.734960  -1077.850387
PE15  -5088.687027 -16553.175691 -24005.242671    860.655222
PE18 -19146.799966 -10466.603777 -23149.424996  -1180.437899
PE19 -19417.012451  22264.877241   1858.391250     23.178220
PE21 -17459.997103   -841.922579 -23887.234747   -609.076422
PE24  16924.987471  20940.720798  12303.202423   5360.446604
PE25  17496.539039    981.456493  23862.143447   -513.345882
PE26 -28858.347506    238.243792   6571.305867   2980.833542
PE27 -17105.217751 -20620.096954 -12581.326472    181.363813
PE30  -6265.734746 -28202.670318   6427.215921   3761.908988
PE31   6719.668028  28182.535637  -6035.477210   -473.156877
PE33 -16921.156805  11714.220166  21276.215212   -465.141062
PE36  28950.866391    -72.732870  -6159.069023    536.494828
PG01 -20716.385100 -15005.718766  -8000.867806     23.268155
PG02    998.722986  16360.901370  21549.260224   -484.499466
PG03 -12130.590032 -18798.209766  14328.692508   -234.137457
PG04 -15311.089049  -6927.024140  20587.595126   -112.496176
PG05   1465.573348  26177.723322   3374.901277    -16.274394
PG06 -12413.435180  10144.909623  21233.106327   -300.538741
PG07 -24939.686018  -4588.315805  -8380.487848   -323.060996
PG08  -4851.222446 -14832.064826 -21447.039323    -40.344857
PG09 -22015.856968   4148.750162  14231.171386   -250.478645
PG10  12241.154919 -12608.780621 -19752.346442   -394.467003
PG11 -13739.195439 -13558.096092 -18605.994972   -226.237114
PG12  10459.653608  19786.117095  14184.322223     96.069313
PG13  -4580.875683  17791.095183 -19263.000695     25.169991
PG14  16961.709854 -18256.609470   9267.794586      0.000386
PG15   7586.603609  14556.319544 -21156.565312   -218.781611
PG16   -425.752349 -26305.940187    400.935965   -180.437409
PG17 -21768.311443  15161.178855   1062.728929    293.153748
PG18  24579.680054   4376.340957  -9120.962100    241.640480
PG19 -18649.567467  17087.596380   7730.844631   -134.460804
PG20  16119.241613   -161.508506 -21209.183191    527.341435
PG21  16227.760207  -8200.695069 -18529.917415     21.487076
PG22 -10466.548250 -23399.975874   7447.442901   -773.240962
PG24  19859.550460  14991.039291  -9995.068157    -15.386992
PG25  14817.932835   9612.139697  19680.056734     21.327606
PG26   6252.026088 -22059.292293  13178.102875    240.072595
PG27   6366.836682 -19189.648637 -17188.549255   -341.221430
PG28 -12203.805820  13878.690066 -18553.431147    701.297258
PG29  20024.272695    867.437976  17397.604802   -146.177963
PG30 -20055.918937   4272.648645 -16946.876582   -258.312593
PG31  11449.690166 -11165.556607  21225.986916    -54.397452
PG32  20618.802381 -16579.221519   1151.625964    313.984958
PJ01 -30574.286133  26301.419699  17202.088904   -271.716429
PJ02 -20561.863769  20632.826349 -26000.885839     -1.114859
PJ03 -28796.384696  29433.330107  14641.969940     -5.070276
PR01   7740.693965   9470.740725 -22376.559852     64.277593
PR02  14324.095092 -12074.324410 -17239.878544    435.416187
PR03  10927.070522 -22968.734726  -1516.900846     18.217090
PR04   1456.066923 -20656.411950  14923.872014     55.637566
PR05  -8819.998423  -6710.730597  22987.256445     53.765488
PR07 -10777.126454  23121.451168   1046.703749    -38.294650
PR08  -1473.472239  20706.048425 -14777.299547    -53.345446
PR09 -11286.864134   3385.543476 -22613.590332    142.426159
PR11  11814.199111  21522.555183  -6800.873673    -29.893261
PR12  17452.245518  15748.296826   9952.970823    145.649765
PR13  13360.765888    602.427259  21706.226855    -40.993728
PR14   1332.984126 -14938.576089  20653.780689     53.149314
PR15 -11228.214010 -21575.422100   7719.674636    106.931493
PR16 -17808.027542 -14863.320048 -10495.309511     -4.562286
PR17  14236.880573 -10035.334182 -18650.556365    339.727233
PR18  -3964.714093 -10062.129865 -23097.889843     41.638681
PR19 -19461.799298  -5458.839268 -15563.071720   -101.538728
PR20 -25104.647315   3337.843947   3225.309867   -416.266051
PR21 -13290.560817  10105.270021  19266.759855   -136.848864
PR23  23560.655942   2027.007569   9550.576021    317.467417
PR24  24906.759655  -3918.567889  -3909.666052      5.620006
PR26 -25372.038402   1642.995081  -1848.126800   -365.051320
EOF
